OBJECT_NAME,OBJECT_ID,EPOCH,MEAN_MOTION,ECCENTRICITY,INCLINATION,RA_OF_ASC_NODE,ARG_OF_PERICENTER,MEAN_ANOMALY,EPHEMERIS_TYPE,CLASSIFICATION_TYPE,NORAD_CAT_ID,ELEMENT_SET_NO,REV_AT_EPOCH,BSTAR,MEAN_MOTION_DOT,MEAN_MOTION_DDOT
M2 PATHFINDER,2020-037E,2026-07-23T02:07:37.786656,15.04815314,.00122038,97.8144,35.7270,37.2846,322.9225,0,U,45727,999,33089,.17405258E-3,.2397E-4,0
NETSAT-4,2020-068U,2026-07-23T23:45:46.539072,15.44996555,.00057938,97.8613,216.2212,164.3736,195.7691,0,U,46504,999,32145,.38052168E-3,.17868E-3,0
NETSAT-3,2020-068V,2026-07-23T23:01:16.287456,15.43851111,.00049625,97.8663,214.3598,178.7076,181.4184,0,U,46505,999,32135,.40114421E-3,.18121E-3,0
NETSAT-1,2020-068W,2026-07-23T10:39:58.237920,15.35391814,.000312,97.8764,207.6964,217.4832,142.6193,0,U,46506,999,32086,.35865E-3,.12249E-3,0
NETSAT-2,2020-068X,2026-07-23T23:24:13.233888,15.47474527,.00034453,97.8618,216.2436,176.4264,183.7010,0,U,46507,999,32142,.41352041E-3,.21153E-3,0
GREENCUBE (IO-117),2022-080E,2026-07-24T05:25:06.013056,6.42583383,.00091748,70.1383,285.3666,281.6416,78.3214,0,U,53109,999,9444,0,-.3E-7,0
SITRO-AIS 5 (KATYS),2023-091L,2026-07-24T06:52:59.888928,15.30228415,.0009755,97.5042,269.5548,338.8109,21.2726,0,U,57176,999,17001,.49509285E-3,.14433E-3,0
SITRO-AIS 6 (CHIRKIN),2023-091AC,2026-07-24T06:53:53.626272,15.26572701,.00102565,97.5050,268.4739,343.7305,16.3603,0,U,57192,999,16994,.46269166E-3,.12055E-3,0
SITRO-AIS 8 (ANOKHIN),2023-091AD,2026-07-24T05:41:34.613088,15.33050872,.00086626,97.5038,271.2484,333.2887,26.7907,0,U,57193,999,17012,.54889873E-3,.17484E-3,0
SITRO-AIS 7 (FARTUSHNIY),2023-091AE,2026-07-24T07:09:39.076416,15.26244558,.00102247,97.5046,268.2900,345.0543,15.0392,0,U,57194,999,16993,.4751536E-3,.12259E-3,0
SITRO-AIS 10 (BURDAEV),2023-091AK,2026-07-24T07:16:48.102528,15.39915820,.00044158,97.5062,276.7642,298.9468,61.1334,0,U,57199,999,17047,.66374098E-3,.26388E-3,0
SITRO-AIS 9 (SHCHUKIN),2023-091AM,2026-07-24T06:38:46.465152,15.39389732,.00046558,97.5061,276.4370,300.0155,60.0628,0,U,57201,999,17045,.64659456E-3,.25262E-3,0
SITRO-AIS 12 (SMIRENNIY),2023-091AQ,2026-07-24T06:15:04.346208,15.39688398,.00043639,97.5074,276.9108,291.2394,68.8385,0,U,57204,999,17047,.6367586E-3,.2512E-3,0
SITRO-AIS 11 (SHEFFER),2023-091AU,2026-07-24T06:19:13.769184,15.40141214,.00043074,97.5072,277.1844,290.1812,69.8970,0,U,57208,999,17049,.64164624E-3,.25694E-3,0
SITRO-AIS 25,2024-039R,2026-07-24T06:59:02.184000,14.93688380,.01437034,95.3886,260.5882,197.4214,162.2055,0,U,59066,999,13026,.39958547E-3,.5148E-4,0
SITRO-AIS 26,2024-039S,2026-07-24T07:08:24.292032,14.93479694,.014401,95.3888,260.4825,197.9960,161.6139,0,U,59067,999,13025,.4314827E-3,.5534E-4,0
SITRO-AIS 27,2024-039T,2026-07-24T07:46:54.825888,14.93910716,.01430725,95.3896,260.7902,196.4295,163.2270,0,U,59068,999,13028,.37291462E-3,.4822E-4,0
SITRO-AIS 28,2024-039U,2026-07-24T07:13:14.512224,14.93940872,.01429924,95.3892,260.8231,196.3223,163.3375,0,U,59071,999,13028,.45201123E-3,.5857E-4,0
GRBBETA,2024-128C,2026-07-24T02:50:01.670496,15.06857326,.00358341,61.9899,86.6723,142.6054,217.7543,0,U,60237,999,11183,.27272807E-3,.3929E-4,0
OOV-CUBE (TUBSAT-30),2024-128F,2026-07-24T02:47:08.608704,15.02903757,.00399671,61.9942,96.7912,142.0849,218.3069,0,U,60240,999,11166,.16614669E-3,.2064E-4,0
ROBUSTA-3A (MEDITERRANEE),2024-128J,2026-07-24T00:57:46.488096,15.12084322,.00367823,61.9865,77.8790,135.9091,224.4948,0,U,60243,999,11199,.44080192E-3,.753E-4,0
LASARSAT,2024-247Q,2026-07-23T07:40:52.896288,15.48476660,.0008725,44.9747,58.8369,216.7306,143.2987,0,U,62391,999,8891,.67064E-3,.36309E-3,0
CROCUBE,2024-247T,2026-07-22T22:44:56.393952,15.50668241,.0008728,44.9710,57.6351,220.4792,139.5451,0,U,62394,999,8889,.81914862E-3,.48107E-3,0
FORESAIL-1 PRIME,2025-276DS,2026-07-24T03:40:55.895808,15.18996316,.00021166,97.4185,277.7514,22.8394,337.2934,0,U,66778,999,3601,.24592644E-3,.5078E-4,0
KNACKSAT-2,1998-067XZ,2026-07-24T06:36:17.006976,15.63224662,.00073864,51.6276,107.4683,357.1091,2.9860,0,U,67683,999,2607,.77997712E-3,.73048E-3,0
